ONEWEB-0387             
1 49313U 21090AL  22326.58335648  .00004003  00000+0  98098-2 0  9991
2 49313  87.9184 173.6372 0001828  80.5961 274.6376 13.20768733 59184
ONEWEB-0388             
1 49314U 21090AM  22326.00001157  .00035372  00000+0  88003-1 0  9991
2 49314  87.9260 203.9849 0001671  74.5615  88.9143 13.19707154  1308
ONEWEB-0389             
1 50469U 21132A   22326.58335648 -.00005023  00000+0 -12978-1 0  9999
2 50469  87.9092 264.6426 0002251  61.7513 282.4316 13.17648899 47838
ONEWEB-0390             
1 50470U 21132B   22326.58335648 -.00004973  00000+0 -12849-1 0  9991
2 50470  87.9093 264.6438 0002353  68.3208 268.5612 13.17649507 47832
ONEWEB-0391             
1 50471U 21132C   22326.58335648 -.00004893  00000+0 -12643-1 0  9995
2 50471  87.9092 264.6153 0002147  67.5972 261.8733 13.17647973 47831
ONEWEB-0392             
1 50472U 21132D   22326.58335648 -.00009896  00000+0 -25549-1 0  9993
2 50472  87.9096 264.6479 0002132  75.6466  48.1938 13.17649154 47868
ONEWEB-0393             
1 50473U 21132E   22326.33334491  .00007067  00000+0  18151-1 0  9999
2 50473  87.9088 264.6939 0002306  78.5406 193.6857 13.17657931 47813
ONEWEB-0394             
1 50474U 21132F   22326.58335648 -.01017694  00000+0 -12797+0 0  9990
2 50474  87.2285 239.5111 0001709 128.4770  56.6327 14.85359951 50613
ONEWEB-0395             
1 50475U 21132G   22326.00001157 -.00043204  00000+0 -12246+0 0  9997
2 50475  87.8823 280.0625 0002157  75.1580 202.3786 13.11444065  1304
ONEWEB-0396             
1 50476U 21132H   22326.25002315 -.01047704  00000+0 -12311+0 0  9995
2 50476  87.2316 239.6896 0003054  85.4954 323.7020 14.88198741 50587
ONEWEB-0397             
1 50477U 21132J   22326.58335648 -.01003544  00000+0 -14498+0 0  9992
2 50477  87.2330 239.6986 0003731 150.8568 240.4941 14.79550855 50613
ONEWEB-0398             
1 50478U 21132K   22326.00001157 -.00043770  00000+0 -12408+0 0  9998
2 50478  87.8822 280.0516 0002452  75.3927 355.7363 13.11438399  1307
ONEWEB-0399             
1 50479U 21132L   22326.00001157 -.00045201  00000+0 -12816+0 0  9993
2 50479  87.8812 280.0648 0001384  86.3778  48.1891 13.11436464  1302
ONEWEB-0400             
1 50480U 21132M   22326.58335648 -.00975947  00000+0 -13401+0 0  9993
2 50480  87.2276 239.4465 0003110 108.3380 279.5860 14.81589578 50640
ONEWEB-0401             
1 50481U 21132N   22326.58335648 -.01000490  00000+0 -13880+0 0  9998
2 50481  87.2297 239.5674 0001791 121.0796  92.2956 14.81247358 50635
ONEWEB-0402             
1 50482U 21132P   22326.33334491 -.01116161  00000+0 -14890+0 0  9992
2 50482  87.2304 239.6670 0001934 124.3803  25.3059 14.82709282 50592
ONEWEB-0403             
1 50483U 21132Q   22326.58335648 -.01023995  00000+0 -12962+0 0  9995
2 50483  87.2276 239.4698 0001952  70.9743  53.6909 14.85106451 50633
ONEWEB-0404             
1 50484U 21132R   22326.00001157 -.00043757  00000+0 -12404+0 0  9996
2 50484  87.8817 280.0239 0001812  55.2108 201.0041 13.11441391  1309
ONEWEB-0405             
1 50485U 21132S   22326.58335648 -.01023817  00000+0 -14133+0 0  9992
2 50485  87.3049 242.3885 0004759  95.7203 270.7948 14.81509509 50631
ONEWEB-0406             
1 50486U 21132T   22326.58335648 -.00995091  00000+0 -11616+0 0  9997
2 50486  87.2322 239.5783 0005667 111.1309 313.6886 14.88285048 50644
ONEWEB-0407             
1 50487U 21132U   22326.58335648 -.01001160  00000+0 -14158+0 0  9998
2 50487  87.2237 239.3245 0005838 102.9304  35.8364 14.80421644 50633
ONEWEB-0409             
1 50488U 21132V   22326.00001157 -.00044471  00000+0 -12608+0 0  9990
2 50488  87.8824 280.0185 0002075  63.2801 166.5632 13.11437930  1307
ONEWEB-0412             
1 50489U 21132W   22326.58335648 -.01004573  00000+0 -12979+0 0  9990
2 50489  87.2289 239.5193 0003265 112.1630 336.5225 14.84198153 50696
ONEWEB-0413             
1 50490U 21132X   22326.33334491 -.01107133  00000+0 -13458+0 0  9999
2 50490  87.2228 239.3344 0001819 135.7250 156.1095 14.86504711 50615
ONEWEB-0414             
1 50491U 21132Y   22326.58335648 -.00999282  00000+0 -14259+0 0  9995
2 50491  87.2269 239.4521 0005410 113.1366  14.5820 14.80043130 50630
ONEWEB-0417             
1 50492U 21132Z   22326.33334491 -.01093005  00000+0 -13591+0 0  9991
2 50492  87.2300 239.6594 0005928 113.8840 243.6721 14.85514568 50590
ONEWEB-0418             
1 50493U 21132AA  22326.33334491 -.01106461  00000+0 -15487+0 0  9999
2 50493  87.2336 239.8245 0003301 135.1169  67.6280 14.80676750 50589
ONEWEB-0419             
1 50494U 21132AB  22326.33334491 -.01106387  00000+0 -15338+0 0  9992
2 50494  87.2220 239.3274 0005660 102.3499 291.3391 14.81060500 50604
ONEWEB-0420             
1 50495U 21132AC  22326.33334491 -.01107291  00000+0 -15336+0 0  9996
2 50495  87.2163 239.0859 0001488 142.9752 259.9983 14.81129598 50625
ONEWEB-0421             
1 50496U 21132AD  22326.58335648 -.01042040  00000+0 -14487+0 0  9995
2 50496  87.2195 239.1366 0000846 122.6795  44.8265 14.80797702 50658
ONEWEB-0424             
1 50497U 21132AE  22326.58335648 -.01007158  00000+0 -12389+0 0  9996
2 50497  87.2368 239.8348 0004023 127.6989  94.4924 14.86210676 50636
ONEWEB-0426             
1 50498U 21132AF  22326.33334491 -.01112130  00000+0 -15382+0 0  9998
2 50498  87.2241 239.4134 0003071  76.6495  86.1940 14.81190785 50597
ONEWEB-0427             
1 50499U 21132AG  22326.58335648 -.01002986  00000+0 -12908+0 0  9999
2 50499  87.2175 239.0351 0004298  89.8685 304.6385 14.84346512 50663
ONEWEB-0429             
1 50500U 21132AH  22326.58335648  .00048673  00000+0  61375-2 0  9997
2 50500  87.2211 239.1835 0002856 126.5042 301.5843 14.81723565 50646
ONEWEB-0430             
1 50501U 21132AJ  22326.33334491 -.01085293  00000+0 -13732+0 0  9999
2 50501  87.2342 239.8400 0004820 106.9137  61.2644 14.84790180 50578
ONEWEB-0432             
1 50502U 21132AK  22326.58335648  .00048109  00000+0  62861-2 0  9994
2 50502  87.2194 239.1315 0002266 163.9424 110.6176 14.80233986 50667
ONEWEB-0440             
1 50503U 21132AL  22326.58335648 -.01005665  00000+0 -13269+0 0  9993
2 50503  87.2232 239.2615 0001939 118.8719 311.8749 14.83343972 50646
ONEWEB-0450             
1 50504U 21132AM  22326.58335648 -.01003768  00000+0 -13947+0 0  9999
2 50504  87.2321 239.6716 0003191 116.8300  83.6650 14.81185052 50622
ONEWEB-0410             
1 51622U 22012A   22326.58335648 -.00006200  00000+0 -13138-1 0  9996
2 51622  87.9615 264.6399 0001087 100.5443  15.3743 13.30913093 43424
ONEWEB-0411             
1 51623U 22012B   22326.33334491  .00042913  00000+0  12236+0 0  9990
2 51623  87.8741 295.2538 0002265  68.6980 189.3604 13.10354778 39934
ONEWEB-0415             
1 51624U 22012C   22326.00001157 -.00035271  00000+0 -10142+0 0  9990
2 51624  87.8728 295.3032 0002463  82.5387  58.6586 13.10400799  1308
ONEWEB-0416             
1 51625U 22012D   22326.00001157 -.00034210  00000+0 -98365-1 0  9998
2 51625  87.8716 295.2856 0001927  89.0459   0.6900 13.10397364  1305
ONEWEB-0422             
1 51626U 22012E   22326.58335648  .00000014  00000+0  00000+0 0  9997
2 51626  87.8412 264.7633 0004963  16.0345 224.5173 13.46466696 43512
ONEWEB-0423             
1 51627U 22012F   22326.58335648 -.00006237  00000+0 -13261-1 0  9998
2 51627  87.9647 264.6425 0002661  69.1690  67.0024 13.30692257 43429
ONEWEB-0425             
1 51628U 22012G   22326.00001157 -.00033600  00000+0 -96614-1 0  9998
2 51628  87.8702 295.2889 0001281  77.1497 328.4697 13.10392373  1301
ONEWEB-0428             
1 51629U 22012H   22326.00001157 -.00035139  00000+0 -10105+0 0  9997
2 51629  87.8710 295.2816 0001931 102.5025  31.4442 13.10394635  1305
ONEWEB-0431             
1 51630U 22012J   22326.00001157 -.00033641  00000+0 -96732-1 0  9997
2 51630  87.8744 295.2824 0002711  94.6552 266.8729 13.10391187  1318
ONEWEB-0434             
1 51631U 22012K   22326.00001157 -.00033563  00000+0 -96506-1 0  9990
2 51631  87.8768 295.2661 0002000 100.0119 290.9669 13.10391110  1302
ONEWEB-0435             
1 51632U 22012L   22326.00001157 -.00032456  00000+0 -93319-1 0  9990
2 51632  87.8756 295.2660 0002056 109.2212 237.6294 13.10388064  1301
ONEWEB-0436             
1 51633U 22012M   22326.58335648 -.00006215  00000+0 -13182-1 0  9993
2 51633  87.9613 264.6343 0001155 101.5965  47.3399 13.30854089 43420
ONEWEB-0438             
1 51634U 22012N   22326.00001157 -.00033857  00000+0 -97351-1 0  9998
2 51634  87.8770 295.2655 0001652  80.9091 346.7521 13.10394233  1304
ONEWEB-0439             
1 51635U 22012P   22326.00001157 -.00033663  00000+0 -96793-1 0  9993
2 51635  87.8745 295.2886 0001876  87.1233 325.8474 13.10393039  1306
ONEWEB-0442             
1 51636U 22012Q   22326.58335648 -.00005879  00000+0 -12430-1 0  9996
2 51636  87.9607 264.6605 0002213  80.7116 336.2001 13.31067262 43407
ONEWEB-0443             
1 51637U 22012R   22326.25002315  .00039938  00000+0  83315-1 0  9994
2 51637  87.9600 264.6938 0000262 167.3303 181.3216 13.31442790 43402
ONEWEB-0444             
1 51638U 22012S   22326.00001157 -.00034371  00000+0 -98826-1 0  9992
2 51638  87.8778 295.2684 0001831  91.3450   5.8298 13.10399536  1307
ONEWEB-0445             
1 51639U 22012T   22326.00001157 -.00033683  00000+0 -96857-1 0  9990
2 51639  87.8741 295.3022 0002128  69.4906 284.7348 13.10387669  1305
ONEWEB-0446             
1 51640U 22012U   22326.00001157 -.00034500  00000+0 -99200-1 0  9996
2 51640  87.8731 295.2986 0002208  82.3091  22.1070 13.10398433  1309
ONEWEB-0448             
1 51641U 22012V   22326.00001157 -.00034066  00000+0 -97948-1 0  9991
2 51641  87.8724 295.2936 0001895  92.1739 350.2898 13.10398341  1307
ONEWEB-0449             
1 51642U 22012W   22326.58335648 -.00049867  00000+0 -14362+0 0  9992
2 51642  87.8775 295.1491 0001711  74.8840 215.8779 13.10391613 40005
